[{"OBJECT_NAME":"STARLINK-1559","OBJECT_ID":"2020-055BC","EPOCH":"2026-03-09T05:36:23.522976","MEAN_MOTION":15.29461733,"ECCENTRICITY":0.0004229,"INCLINATION":53.0254,"RA_OF_ASC_NODE":76.0659,"ARG_OF_PERICENTER":33.971,"MEAN_ANOMALY":326.1559,"EPHEMERIS_TYPE":0,"CLASSIFICATION_TYPE":"U","NORAD_CAT_ID":46077,"ELEMENT_SET_NO":999,"REV_AT_EPOCH":30951,"BSTAR":0.0014778793,"MEAN_MOTION_DOT":0.00042685,"MEAN_MOTION_DDOT":0},{"OBJECT_NAME":"STARLINK-34537","OBJECT_ID":"2025-147Z","EPOCH":"2026-03-09T17:11:47.690016","MEAN_MOTION":15.30203721,"ECCENTRICITY":8.348e-5,"INCLINATION":53.1565,"RA_OF_ASC_NODE":219.7468,"ARG_OF_PERICENTER":90.4465,"MEAN_ANOMALY":269.6632,"EPHEMERIS_TYPE":0,"CLASSIFICATION_TYPE":"U","NORAD_CAT_ID":64778,"ELEMENT_SET_NO":999,"REV_AT_EPOCH":3910,"BSTAR":0.00097442014,"MEAN_MOTION_DOT":0.00028615,"MEAN_MOTION_DDOT":0}]
